{"type": "FeatureCollection", "features": [ {"type": "Feature", "properties": {"norad_id": 31498, "name": "FENGYUN 1C DEB", "group": "fengyun-1c-debris", "lat": -72.2042607034773, "lon": -17.69171074385665, "alt_km": 1083.2930087719596, "timestamp": "2025-12-08T19:31:49.091336+00:00", "meta": {"OBJECT_NAME": "FENGYUN 1C DEB", "OBJECT_ID": "1999-025BWM", "EPOCH": "2025-12-07T09:01:34.731552", "MEAN_MOTION": 13.76971879, "ECCENTRICITY": 0.02184706, "INCLINATION": 98.4853, "RA_OF_ASC_NODE": 313.3091, "ARG_OF_PERICENTER": 159.5169, "MEAN_ANOMALY": 201.4915, "EPHEMERIS_TYPE": 0, "CLASSIFICATION_TYPE": "U", "NORAD_CAT_ID": 31498, "ELEMENT_SET_NO": 999, "REV_AT_EPOCH": 92660, "BSTAR": 0.0019980316, "MEAN_MOTION_DOT": 2.314e-05, "MEAN_MOTION_DDOT": 0}, "tle": {"line1": "1 31498U 99025BWM 25341.37609643  .00002314  00000+0  19980-2 0  9991", "line2": "2 31498  98.4853 313.3091 0218470 159.5169 201.4915 13.76971879926605"}}, "geometry": {"type": "Point", "coordinates": [-17.69171074385665, -72.2042607034773]}}, {"type": "Feature", "properties": {"norad_id": 31503, "name": "FENGYUN 1C DEB", "group": "fengyun-1c-debris", "lat": -78.73255772694894, "lon": -88.20014936331577, "alt_km": 815.8657863678327, "timestamp": "2025-12-08T19:31:49.091345+00:00", "meta": {"OBJECT_NAME": "FENGYUN 1C DEB", "OBJECT_ID": "1999-025BWS", "EPOCH": "2025-12-07T08:28:57.805248", "MEAN_MOTION": 14.22556904, "ECCENTRICITY": 0.00490467, "INCLINATION": 100.0987, "RA_OF_ASC_NODE": 206.6798, "ARG_OF_PERICENTER": 202.0276, "MEAN_ANOMALY": 157.879, "EPHEMERIS_TYPE": 0, "CLASSIFICATION_TYPE": "U", "NORAD_CAT_ID": 31503, "ELEMENT_SET_NO": 999, "REV_AT_EPOCH": 64170, "BSTAR": 0.0017221681, "MEAN_MOTION_DOT": 3.84e-05, "MEAN_MOTION_DDOT": 0}, "tle": {"line1": "1 31503U 99025BWS 25341.35344682  .00003840  00000+0  17222-2 0  9997", "line2": "2 31503 100.0987 206.6798 0049046 202.0276 157.8790 14.22556904641702"}}, "geometry": {"type": "Point", "coordinates": [-88.20014936331577, -78.73255772694894]}}, {"type": "Feature", "properties": {"norad_id": 31507, "name": "FENGYUN 1C DEB", "group": "fengyun-1c-debris", "lat": -66.15599499026453, "lon": 34.184557177139446, "alt_km": 803.1797343464686, "timestamp": "2025-12-08T19:31:49.091354+00:00", "meta": {"OBJECT_NAME": "FENGYUN 1C DEB", "OBJECT_ID": "1999-025BWW", "EPOCH": "2025-12-08T01:47:16.966752", "MEAN_MOTION": 14.52144346, "ECCENTRICITY": 0.01179862, "INCLINATION": 98.1938, "RA_OF_ASC_NODE": 14.4363, "ARG_OF_PERICENTER": 92.4419, "MEAN_ANOMALY": 298.2182, "EPHEMERIS_TYPE": 0, "CLASSIFICATION_TYPE": "U", "NORAD_CAT_ID": 31507, "ELEMENT_SET_NO": 999, "REV_AT_EPOCH": 97953, "BSTAR": 0.0006167604, "MEAN_MOTION_DOT": 2.69e-05, "MEAN_MOTION_DDOT": 0}, "tle": {"line1": "1 31507U 99025BWW 25342.07450193  .00002690  00000+0  61676-3 0  9991", "line2": "2 31507  98.1938  14.4363 0117986  92.4419 298.2182 14.52144346979537"}}, "geometry": {"type": "Point", "coordinates": [34.184557177139446, -66.15599499026453]}}, {"type": "Feature", "properties": {"norad_id": 31508, "name": "FENGYUN 1C DEB", "group": "fengyun-1c-debris", "lat": -8.031991581707647, "lon": -90.02750366537741, "alt_km": 709.739298271872, "timestamp": "2025-12-08T19:31:49.091363+00:00", "meta": {"OBJECT_NAME": "FENGYUN 1C DEB", "OBJECT_ID": "1999-025BWX", "EPOCH": "2025-12-06T12:28:43.968576", "MEAN_MOTION": 14.62244446, "ECCENTRICITY": 0.00332175, "INCLINATION": 98.6332, "RA_OF_ASC_NODE": 88.8049, "ARG_OF_PERICENTER": 344.7452, "MEAN_ANOMALY": 15.2744, "EPHEMERIS_TYPE": 0, "CLASSIFICATION_TYPE": "U", "NORAD_CAT_ID": 31508, "ELEMENT_SET_NO": 999, "REV_AT_EPOCH": 96833, "BSTAR": 0.004912467, "MEAN_MOTION_DOT": 0.00024993, "MEAN_MOTION_DDOT": 0}, "tle": {"line1": "1 31508U 99025BWX 25340.51995334  .00024993  00000+0  49125-2 0  9994", "line2": "2 31508  98.6332  88.8049 0033217 344.7452  15.2744 14.62244446968331"}}, "geometry": {"type": "Point", "coordinates": [-90.02750366537741, -8.031991581707647]}}, {"type": "Feature", "properties": {"norad_id": 31509, "name": "FENGYUN 1C DEB", "group": "fengyun-1c-debris", "lat": 71.94184917680184, "lon": -48.68897950187127, "alt_km": 984.4340691098769, "timestamp": "2025-12-08T19:31:49.091372+00:00", "meta": {"OBJECT_NAME": "FENGYUN 1C DEB", "OBJECT_ID": "1999-025BWY", "EPOCH": "2025-12-07T18:54:19.576512", "MEAN_MOTION": 13.94842336, "ECCENTRICITY": 0.02040693, "INCLINATION": 99.0227, "RA_OF_ASC_NODE": 101.1421, "ARG_OF_PERICENTER": 231.8764, "MEAN_ANOMALY": 126.3848, "EPHEMERIS_TYPE": 0, "CLASSIFICATION_TYPE": "U", "NORAD_CAT_ID": 31509, "ELEMENT_SET_NO": 999, "REV_AT_EPOCH": 93893, "BSTAR": 0.0039387329, "MEAN_MOTION_DOT": 6.248e-05, "MEAN_MOTION_DDOT": 0}, "tle": {"line1": "1 31509U 99025BWY 25341.78772658  .00006248  00000+0  39387-2 0  9999", "line2": "2 31509  99.0227 101.1421 0204069 231.8764 126.3848 13.94842336938938"}}, "geometry": {"type": "Point", "coordinates": [-48.68897950187127, 71.94184917680184]}}, {"type": "Feature", "properties": {"norad_id": 31510, "name": "FENGYUN 1C DEB", "group": "fengyun-1c-debris", "lat": -0.602851995245182, "lon": 162.0269397151024, "alt_km": 838.7719088156864, "timestamp": "2025-12-08T19:31:49.091382+00:00", "meta": {"OBJECT_NAME": "FENGYUN 1C DEB", "OBJECT_ID": "1999-025BWZ", "EPOCH": "2025-12-06T06:04:31.555200", "MEAN_MOTION": 14.2453779, "ECCENTRICITY": 0.00375224, "INCLINATION": 98.5536, "RA_OF_ASC_NODE": 339.6242, "ARG_OF_PERICENTER": 350.7602, "MEAN_ANOMALY": 25.5517, "EPHEMERIS_TYPE": 0, "CLASSIFICATION_TYPE": "U", "NORAD_CAT_ID": 31510, "ELEMENT_SET_NO": 999, "REV_AT_EPOCH": 96395, "BSTAR": 0.00098453338, "MEAN_MOTION_DOT": 2.258e-05, "MEAN_MOTION_DDOT": 0}, "tle": {"line1": "1 31510U 99025BWZ 25340.25314300  .00002258  00000+0  98453-3 0  9995", "line2": "2 31510  98.5536 339.6242 0037522 350.7602  25.5517 14.24537790963958"}}, "geometry": {"type": "Point", "coordinates": [162.0269397151024, -0.602851995245182]}}, {"type": "Feature", "properties": {"norad_id": 31511, "name": "FENGYUN 1C DEB", "group": "fengyun-1c-debris", "lat": 56.783046560924895, "lon": -14.573638935290406, "alt_km": 826.3308705493528, "timestamp": "2025-12-08T19:31:49.091390+00:00", "meta": {"OBJECT_NAME": "FENGYUN 1C DEB", "OBJECT_ID": "1999-025BXA", "EPOCH": "2025-12-05T22:00:15.181632", "MEAN_MOTION": 14.27991614, "ECCENTRICITY": 0.01096951, "INCLINATION": 99.0676, "RA_OF_ASC_NODE": 148.3037, "ARG_OF_PERICENTER": 246.1309, "MEAN_ANOMALY": 112.8345, "EPHEMERIS_TYPE": 0, "CLASSIFICATION_TYPE": "U", "NORAD_CAT_ID": 31511, "ELEMENT_SET_NO": 999, "REV_AT_EPOCH": 95703, "BSTAR": 0.002130032, "MEAN_MOTION_DOT": 5.59e-05, "MEAN_MOTION_DDOT": 0}, "tle": {"line1": "1 31511U 99025BXA 25339.91684238  .00005590  00000+0  21300-2 0  9995", "line2": "2 31511  99.0676 148.3037 0109695 246.1309 112.8345 14.27991614957033"}}, "geometry": {"type": "Point", "coordinates": [-14.573638935290406, 56.783046560924895]}}, {"type": "Feature", "properties": {"norad_id": 31512, "name": "FENGYUN 1C DEB", "group": "fengyun-1c-debris", "lat": 40.04343639386948, "lon": 65.54381531651624, "alt_km": 645.8252162942199, "timestamp": "2025-12-08T19:31:49.091400+00:00", "meta": {"OBJECT_NAME": "FENGYUN 1C DEB", "OBJECT_ID": "1999-025BXB", "EPOCH": "2025-12-07T13:30:10.106208", "MEAN_MOTION": 14.4379554, "ECCENTRICITY": 0.0144088, "INCLINATION": 98.8038, "RA_OF_ASC_NODE": 236.7662, "ARG_OF_PERICENTER": 162.4384, "MEAN_ANOMALY": 318.0859, "EPHEMERIS_TYPE": 0, "CLASSIFICATION_TYPE": "U", "NORAD_CAT_ID": 31512, "ELEMENT_SET_NO": 999, "REV_AT_EPOCH": 65427, "BSTAR": 0.00072922884, "MEAN_MOTION_DOT": 2.764e-05, "MEAN_MOTION_DDOT": 0}, "tle": {"line1": "1 31512U 99025BXB 25341.56261697  .00002764  00000+0  72923-3 0  9998", "line2": "2 31512  98.8038 236.7662 0144088 162.4384 318.0859 14.43795540654275"}}, "geometry": {"type": "Point", "coordinates": [65.54381531651624, 40.04343639386948]}}, {"type": "Feature", "properties": {"norad_id": 31513, "name": "FENGYUN 1C DEB", "group": "fengyun-1c-debris", "lat": 31.4297795529383, "lon": -95.07690219734592, "alt_km": 761.813324590561, "timestamp": "2025-12-08T19:31:49.091409+00:00", "meta": {"OBJECT_NAME": "FENGYUN 1C DEB", "OBJECT_ID": "1999-025BXC", "EPOCH": "2025-11-25T02:15:23.832576", "MEAN_MOTION": 14.32315683, "ECCENTRICITY": 0.00282412, "INCLINATION": 98.8622, "RA_OF_ASC_NODE": 65.435, "ARG_OF_PERICENTER": 176.3464, "MEAN_ANOMALY": 183.7931, "EPHEMERIS_TYPE": 0, "CLASSIFICATION_TYPE": "U", "NORAD_CAT_ID": 31513, "ELEMENT_SET_NO": 999, "REV_AT_EPOCH": 72616, "BSTAR": 0.0023967664, "MEAN_MOTION_DOT": 6.459e-05, "MEAN_MOTION_DDOT": 0}, "tle": {"line1": "1 31513U 99025BXC 25329.09402584  .00006459  00000+0  23968-2 0  9994", "line2": "2 31513  98.8622  65.4350 0028241 176.3464 183.7931 14.32315683726161"}}, "geometry": {"type": "Point", "coordinates": [-95.07690219734592, 31.4297795529383]}}, {"type": "Feature", "properties": {"norad_id": 31514, "name": "FENGYUN 1C DEB", "group": "fengyun-1c-debris", "lat": -46.47337976397176, "lon": 53.49894018483776, "alt_km": 835.6913301705454, "timestamp": "2025-12-08T19:31:49.091419+00:00", "meta": {"OBJECT_NAME": "FENGYUN 1C DEB", "OBJECT_ID": "1999-025BXD", "EPOCH": "2025-12-06T15:46:13.233504", "MEAN_MOTION": 14.20926247, "ECCENTRICITY": 0.00522229, "INCLINATION": 99.2471, "RA_OF_ASC_NODE": 241.1191, "ARG_OF_PERICENTER": 132.5364, "MEAN_ANOMALY": 228.0239, "EPHEMERIS_TYPE": 0, "CLASSIFICATION_TYPE": "U", "NORAD_CAT_ID": 31514, "ELEMENT_SET_NO": 999, "REV_AT_EPOCH": 69238, "BSTAR": 0.0026683713, "MEAN_MOTION_DOT": 5.813e-05, "MEAN_MOTION_DDOT": 0}, "tle": {"line1": "1 31514U 99025BXD 25340.65709761  .00005813  00000+0  26684-2 0  9998", "line2": "2 31514  99.2471 241.1191 0052222 132.5364 228.0239 14.20926247692385"}}, "geometry": {"type": "Point", "coordinates": [53.49894018483776, -46.47337976397176]}}]}